POLYITAN-1              
1 40042U 14033AJ  26196.04073856  .00011373  00000+0  34568-3 0  9991
2 40042  98.0932 224.9562 0007940  64.6154 295.5908 15.34216227657862
TIGRISAT                
1 40043U 14033AK  26196.41191497  .00000723  00000+0  88930-4 0  9995
2 40043  97.7864 345.7834 0048619 343.6307  16.3336 14.85249877649817
AEROCUBE 6A             
1 40045U 14033AM  26196.40793866  .00003049  00000+0  25769-3 0  9998
2 40045  97.7247   3.0629 0036306 280.2284  79.4845 14.98344247650841
AEROCUBE 6B             
1 40046U 14033AN  26196.44952501  .00002488  00000+0  20314-3 0  9993
2 40046  97.7200   2.9520 0038068 269.1514  90.5347 14.99799188650994
CANX-4                  
1 40055U 14034C   26196.11735289  .00000420  00000+0  61209-4 0  9993
2 40055  98.3083  72.4512 0011424 283.1173  76.8763 14.81311066648663
CANX-5                  
1 40056U 14034D   26196.45319819  .00000410  00000+0  59895-4 0  9995
2 40056  98.3085  72.8445 0011413 282.1246  77.8687 14.81328706639523
UKUBE-1                 
1 40074U 14037F   26196.26136399  .00003915  00000+0  22031-3 0  9991
2 40074  98.4242 202.4925 0003284  87.8667 272.2938 15.13950237652809
BRITE-PL2 (HEWELIUSZ)   
1 40119U 14049B   26196.55779191  .00000515  00000+0  52887-4 0  9995
2 40119  97.9120 308.7813 0014304  21.0628 339.1178 14.94687803645687
AEROCUBE 5C             
1 40965U 15058B   26196.33189741  .00001717  00000+0  15961-3 0  9993
2 40965  64.7654 175.0228 0132342  52.3884 308.9155 14.91576607369856
AEROCUBE 7              
1 40966U 15058C   26196.18044997  .00002744  00000+0  22457-3 0  9999
2 40966  64.7612 157.1214 0122052  50.7559 310.4311 14.95913679370149
FOX-1A (AO-85)          
1 40967U 15058D   26196.38863535  .00001629  00000+0  15413-3 0  9994
2 40967  64.7725 191.3328 0132381  45.7352 315.4532 14.91088896117770
SINOD-D 1               
1 40968U 15058E   26196.62300250  .00002882  00000+0  23458-3 0  9992
2 40968  64.7735 169.8489 0121067  41.9967 319.0351 14.96090937120912
SNAP-3 ALICE            
1 40970U 15058G   26196.44126520  .00098504  00000+0  88764-3 0  9998
2 40970  64.7493   5.7298 0024747 348.0540  12.0019 15.67258837121306
LMRST-SAT               
1 40971U 15058H   26196.41827396  .00001573  00000+0  15033-3 0  9994
2 40971  64.7732 187.6328 0133919  47.7261 313.5114 14.90704097117761
SNAP-3 EDDIE            
1 40972U 15058J   26196.53612239  .00119240  00000+0  10093-2 0  9997
2 40972  64.7405 355.9050 0025621 350.4878   9.5783 15.68684163123464
PROPCUBE 3              
1 40973U 15058K   26196.31727686  .00002294  00000+0  19608-3 0  9999
2 40973  64.7671 164.6351 0125787  48.9550 312.2353 14.94416422119000
BISONSAT                
1 40974U 15058L   26196.12476646  .00008237  00000+0  39068-3 0  9991
2 40974  64.7585  83.2653 0082113  35.8976 324.7626 15.16931314119859
SNAP-3 JIMI             
1 40975U 15058M   26196.21191634  .00004237  00000+0  29202-3 0  9998
2 40975  64.7648 131.0828 0107856  44.3121 316.6566 15.02609366118435
PROPCUBE 1 (FLORA)      
1 40976U 15058N   26196.39914892  .00001235  00000+0  12616-3 0  9993
2 40976  64.7718 207.7912 0132494  50.0073 311.2581 14.89328269120463
SINOD-D 3               
1 40977U 15058P   26196.42039095  .00002192  00000+0  19133-3 0  9995
2 40977  64.7703 187.6434 0121079  47.0451 314.0739 14.94174606118975
RAVAN                   
1 41849U 16067B   26196.27374577  .00034156  00000+0  46535-3 0  9996
2 41849  97.9845  89.1482 0002228 215.7136 144.3969 15.57471545532067
CELTEE 1                
1 41850U 16067C   26196.05690761  .00002855  00000+0  13646-3 0  9998
2 41850  98.0635  64.5246 0002355 110.5351 249.6135 15.19940045530117
OPTICUBE 04             
1 41851U 16067D   26196.51274878  .00000981  00000+0  65056-4 0  9998
2 41851  98.0673  50.2724 0016155  26.7712 333.4346 15.09773007529446
AEROCUBE 8D             
1 41852U 16067E   26196.44327055  .00003962  00000+0  16320-3 0  9998
2 41852  98.0641  68.7664 0004549  55.8282 304.3385 15.24771509530374
AEROCUBE 8C             
1 41853U 16067F   26195.61059529  .00004132  00000+0  16881-3 0  9997
2 41853  98.0521  65.0631 0004333 343.7365  16.3731 15.25019050530246
CORVUS BC2              
1 42846U 17042X   26196.42593789  .00001141  00000+0  81219-4 0  9990
2 42846  97.4091 356.6849 0013437  22.3190 337.8619 15.06456928491313
CORVUS BC1              
1 42847U 17042Y   26196.41744074  .00001242  00000+0  87711-4 0  9990
2 42847  97.4121 357.5089 0011650 359.4379   0.6833 15.06619897491344
MAKERSAT 0              
1 43016U 17073D   26196.58230121  .00012472  00000+0  32937-3 0  9990
2 43016  97.4578  79.3342 0105454 170.8735 189.4458 15.33017186470818
SIRION PATHFINDER-2     
1 43759U 18099B   26196.06036312  .00002124  00000+0  11790-3 0  9999
2 43759  97.4238 244.4570 0008448 191.9909 168.1124 15.14776742416841
CORVUS BC4              
1 43767U 18099K   26196.36953290  .00001876  00000+0  11076-3 0  9994
2 43767  97.4051 238.5262 0006507 260.1573  99.8924 15.12703044416666
